#cP2023  8  4  0  0  0.00000000      96 ORBIT IGS20 HLM  IGS
## 2273 432000.00000000   900.00000000 60160 0.0000000000000
+   32   G01G02G03G04G05G06G07G08G09G10G11G12G13G14G15G16G17
+        G18G19G20G21G22G23G24G25G26G27G28G29G30G31G32  0  0
+          0  0  0  0  0  0  0  0  0  0  0  0  0  0  0  0  0
+          0  0  0  0  0  0  0  0  0  0  0  0  0  0  0  0  0
+          0  0  0  0  0  0  0  0  0  0  0  0  0  0  0  0  0
++         2  2  2  2  2  2  2  2  2  2  2  2  2  2  2  2  2
++         2  2  2  2  3  2  2  2  1  2  2  2  2  2  2  0  0
++         0  0  0  0  0  0  0  0  0  0  0  0  0  0  0  0  0
++         0  0  0  0  0  0  0  0  0  0  0  0  0  0  0  0  0
++         0  0  0  0  0  0  0  0  0  0  0  0  0  0  0  0  0
%c G  cc GPS ccc cccc cccc cccc cccc ccccc ccccc ccccc ccccc
%c cc cc ccc ccc cccc cccc cccc cccc ccccc ccccc ccccc ccccc
%f  1.2500000  1.025000000  0.00000000000  0.000000000000000
%f  0.0000000  0.000000000  0.00000000000  0.000000000000000
%i    0    0    0    0      0      0      0      0         0
%i    0    0    0    0      0      0      0      0         0
/* RAPID ORBIT COMBINATION FROM WEIGHTED AVERAGE OF:        
/* cod emr esa gfz grg jpl ngs sio usn whu                  
/* REFERENCED TO IGS TIME (IGST) AND TO WEIGHTED MEAN POLE: 
/* PCV:IGS20      OL/AL:FES2014b NONE     Y  ORB:CMB CLK:CMB
*  2023  8  4 10 30  0.00000000
PG01  13738.066752  -5115.179194  21776.421238    169.941823  6  6  7  59       
PG02  15815.692248   1639.800347  21799.356543   -569.128856  5  5  6  82       
PG03  22571.491172 -11827.770001   7129.341983   -203.004858  6  3  4  86       
PG04  21577.684555  -2297.054682 -15385.687319    115.457119  6  4  7  80       
PG05 -18574.175085  -1313.961717 -19163.598422   -137.496692  6  5  6  86       
PG06  -5346.626525 -25829.638604  -2592.314551    570.639698  5  7  4  84       
PG07   7154.403108 -20733.249690 -14162.183524    105.555032  5  3  3  95       
PG08  25691.023352   5369.640418   5209.498157   -135.521897  6  5  2  97       
PG09  13793.528451 -10216.695469 -20356.557482    -95.328331  3  5  4  83       
PG10  -4403.388111  19017.742218  18036.959760    -47.886606  6  3  4  82       
PG11 -12452.740199 -17755.007295 -15354.549036   -305.557381  8  8  7  93       
PG12 -23246.979407   7597.625046   9984.965867   -408.845598  8  4  6  81       
PG13 -22863.657267 -13717.214342  -1064.573062    555.831277  9  8  6  51       
PG14   7944.204227 -19926.051296  15575.711016    143.503875  5  3  6  71       
PG15 -25982.465299  -2124.972227   5263.134318     64.402265  4  5  6 104       
PG16  15669.585936   6878.527769 -20729.701071   -472.595670  5  2  3  70       
PG17  -3085.285255 -16922.061898  20639.458280    722.212285  5  6  6  61       
PG18  -5720.621790  22534.022329 -12683.926035   -370.357781  6  5  4  69       
PG19 -11450.584752 -18066.596602  15743.871040    353.045268  6  4  4  80       
PG20 -11338.337556 -10494.655671 -21568.984323    419.047410  5  6  5  79       
PG21  16344.688805   5373.316531  20976.614392    151.252873  5  5  6  88       
PG22  14206.476285  17916.039863  14099.059508    522.309357 10  6  8  95       
PG23 -15268.783556  20069.960585   8066.349572     50.978892  7  4  4  99       
PG24 -15851.318552    482.724470  20971.544382   -279.263110  4  6  3  76       
PG25 -19626.156907  17625.289506  -1692.990825    460.180411  6  5  2 117       
PG26   6576.124569  15042.429754 -20947.462334    234.208473  5     6  32       
PG27  22481.738184  13287.640429  -6174.207429    -15.865393  7  2  4  82       
PG28   5258.898168  26030.266472   -583.624278     78.888033  8  6  6  73       
PG29 -15129.543628   8007.704322 -20386.756970   -607.090544  5  4  6 109       
PG30    791.311730 -25690.026662  -6006.097746   -499.159782  6  2  2  83       
PG31  10762.138146  21370.199915 -11238.029637   -221.261540  7  3  4  58       
PG32   7790.494256  17176.071476  18963.301504   -534.275380  6  7  4  90       
*  2023  8  4 10 45  0.00000000
PG01  14182.171091  -2581.315122  21965.699175    169.940477  7  6  6  91       
PG02  16382.272302   3914.510967  21075.853023   -569.125257  5  5  6  94       
PG03  21945.712852 -11038.410776   9805.003255   -202.989157  6  3  3  90       
PG04  23031.745751  -1529.539384 -13233.930317    115.467304  7  4  6  58       
PG05 -17014.547830  -2901.223853 -20399.524342   -137.497706  7  5  5  87       
PG06  -5192.222270 -25995.045744    320.969712    570.635469  5  6  4  70       
PG07   7719.949994 -18974.457252 -16169.918225    105.545361  5  3  3  82       
PG08  26039.067388   5724.165769   2426.466179   -135.523464  6  6  2 106       
PG09  15893.586281  -9410.795028 -19179.104532    -95.319713  3  5  4  83       
PG10  -5965.488520  20168.674354  16199.938906    -47.888029  6  2  4  97       
PG11 -12489.542517 -19396.883881 -13191.093098   -305.572642  7  7  7  81       
PG12 -22314.040098   6633.834164  12438.936632   -408.849509  8  4  6 100       
PG13 -22534.691518 -13781.487816  -3908.708426    555.835497 10  8  7  62       
PG14   9386.940846 -20793.641876  13482.029734    143.514445  5  3  6  73       
PG15 -26406.755797  -2529.860168   2524.307982     64.405516  5  5  6  97       
PG16  13784.530349   8273.059713 -21515.935437   -472.591432  5  2  3  59       
PG17   -922.532813 -16070.772006  21538.761238    722.212609  4  6  7  73       
PG18  -6156.197411  21001.028636 -14928.579569   -370.370131  6  4  5  99       
PG19  -9654.608706 -17349.263273  17590.549132    353.049752  5  5  4  69       
PG20  -9747.042285 -12379.800334 -21363.224095    419.045872  5  6  5  68       
PG21  16887.910635   7517.596915  19907.889261    151.252262  6  5  6  99       
PG22  12633.884675  17379.230708  16168.673778    522.314109  9  6  8  78       
PG23 -15984.103341  20422.752536   5311.442049     50.982889  7  5  3  99       
PG24 -16463.653239  -1891.450597  20460.564817   -279.273701  4  6  3  74       
PG25 -19822.099613  17397.024448   1161.063357    460.182403  5  6  3 106       
PG26   4829.848102  16612.096588 -20188.401293    234.207250  5     6  56       
PG27  21646.028183  13195.803497  -8846.481132    -15.871651  7  2  4  71       
PG28   4989.950892  25988.424403   2271.080172     78.885516  8  6  5  71       
PG29 -17145.194246   7017.840191 -19122.402954   -607.091081  4  5  6 111       
PG30   1265.812171 -24898.154329  -8652.422246   -499.157173  7  1  2  90       
PG31  10676.682628  22529.628413  -8693.867594   -221.261784  7  3  4  59       
PG32   5677.367377  16552.651035  20220.428684   -534.281862  5  7  3  94       
*  2023  8  4 11  0  0.00000000
PG01  14765.824210    -80.133740  21764.550441    169.939102  7  5  5  95       
PG02  17040.615579   6061.202728  20006.300494   -569.121350  6  5  6  86       
PG03  21150.875765 -10010.580999  12309.790573   -202.973479  6  3  3  83       
PG04  24280.630250   -920.027638 -10855.612682    115.477432  8  4  6  73       
PG05 -15459.950705  -4656.565052 -21290.742119   -137.498891  6  5  5  86       
PG06  -4971.280249 -25846.467756   3228.703163    570.631253  5  6  5  56       
PG07   8421.504265 -17036.006094 -17884.374389    105.535656  6  4  3  85       
PG08  26101.021239   5980.044439   -397.362171   -135.524639  6  6  2 103       
PG09  17886.416891  -8753.460723 -17674.100697    -95.311100  3  5  4  72       
PG10  -7303.651897  21249.002986  14083.773756    -47.889078  6  1  3 101       
PG11 -12564.124892 -20781.225001 -10800.997406   -305.587951  7  7  7 106       
PG12 -21226.510817   5449.331955  14674.759860   -408.854072  7  5  6 102       
PG13 -21921.548240 -13733.256820  -6686.651562    555.840100  9  7  7  80       
PG14  10599.521948 -21564.474871  11154.753015    143.525100  5  3  5  77       
PG15 -26542.719233  -2865.678084   -257.588686     64.408587  5  5  6 107       
PG16  11921.908060   9811.640422 -21944.118807   -472.586997  6  2  4  52       
PG17   1357.290334 -15313.756309  22080.862298    722.213516  4  6  7  92       
PG18  -6726.555448  19259.822996 -16914.331267   -370.382432  6  4  5  93       
PG19  -7640.568903 -16656.909911  19133.337475    353.054644  5  5  4  78       
PG20  -8279.937807 -14305.592677 -20789.253135    419.043460  5  5  5  92       
PG21  17502.883508   9497.081052  18518.967891    151.251749  7  5  6  85       
PG22  10835.789237  16850.148192  17970.147506    522.318795  9  6  8 110       
PG23 -16456.079821  20585.998301   2464.210363     50.986943  7  4  4 100       
PG24 -17160.458309  -4154.321274  19588.217054   -279.284349  4  6  3  84       
PG25 -19799.837734  16949.727519   3994.736117    460.184390  5  6  4  96       
PG26   3228.148425  18187.914606 -19083.000408    234.206012  6  1  6  64       
PG27  20528.000125  13069.037179 -11371.376608    -15.877929  6  2  4  82       
PG28   4631.611841  25651.774344   5086.695523     78.883026  7  6  5  77       
PG29 -19060.393687   6196.477698 -17531.371054   -607.091833  4  4  6 103       
PG30   1844.759879 -23845.209284 -11146.920440   -499.154522  7     2  93       
PG31  10583.488226  23402.550830  -5997.432449   -221.262417  7  3  4  79       
PG32   3416.094246  16008.508467  21136.611978   -534.288317  5  6  3  95       
EOF
